{"type":"FeatureCollection","features":[{"type":"Feature","properties":{"name":"Esan South-East","lga":"Esan South-East","state":"Edo","level":"lga","center_lat":6.56135,"center_lng":6.440992},"geometry":{"type":"Polygon","coordinates":[[[6.623610019886542,6.793598175115733],[6.616251944971339,6.790788174135002],[6.593578814910416,6.791497231112373],[6.584594519321683,6.790061912227543],[6.53014085721486,6.793418537335697],[6.517399788569435,6.793547152978761],[6.431306839239312,6.776103973619513],[6.428662777565194,6.752059936816693],[6.434171199741115,6.730865001718485],[6.435112952700649,6.719789027841387],[6.429689884280776,6.714194775268709],[6.397047996867627,6.712962151881868],[6.385172872829855,6.710109600377791],[6.373497963060572,6.704424858020843],[6.378839363146142,6.680147709749065],[6.377299837117846,6.675760385133742],[6.372702162874589,6.672748061873619],[6.338625362170774,6.667736873957608],[6.339182854605099,6.658833981403177],[6.34373521830571,6.65333509383953],[6.348309994011061,6.640445232361628],[6.35016679815925,6.626605988075937],[6.338451862263696,6.603400230036641],[6.334867001810721,6.590434074572954],[6.324923992048639,6.580177784177465],[6.30226898242762,6.575344085561142],[6.295929908638414,6.572513103397057],[6.285089015745541,6.559476852075136],[6.278789043579536,6.544637202844683],[6.261614798384301,6.526922225880071],[6.270720958405548,6.514998912569808],[6.273474215762519,6.504864215910857],[6.278028011183835,6.498439788365602],[6.284401894132145,6.490187167703652],[6.297132968611663,6.479221820330793],[6.294465065010797,6.462567805959509],[6.28096008344113,6.431954861927409],[6.285513877963126,6.425531864304162],[6.303674220788707,6.418313980206051],[6.306408881964387,6.413721084960173],[6.298312186658109,6.393321037236149],[6.286582947045417,6.37473392473089],[6.28161621081955,6.360329150769758],[6.290318012266482,6.361868381820386],[6.312781334091369,6.367324828578035],[6.322375298081568,6.373044968250724],[6.336294651277171,6.378173351319163],[6.349565983583318,6.37877607335713],[6.357560157974945,6.384293556202692],[6.3622894291139,6.384438991866034],[6.370153904179404,6.383304119389663],[6.391427039826056,6.388796806127743],[6.412735939711922,6.396037102230537],[6.43126201612921,6.406817913216173],[6.436604023257132,6.416059017409793],[6.445375918763716,6.425244807901606],[6.466182709164741,6.440909863899151],[6.480507851755988,6.447825909438222],[6.502198218872763,6.463956833141367],[6.50962591210623,6.47580814403068],[6.520029068087069,6.483035565439025],[6.523318768346542,6.487541198567499],[6.540155888283664,6.492012024335509],[6.575504780021618,6.495079994046534],[6.585692882920284,6.497939110601521],[6.608807087277285,6.499517918117476],[6.622426032735291,6.49547100128575],[6.632654189639197,6.489315033062383],[6.646256923917974,6.4887337679491],[6.659813880905915,6.498556137256003],[6.668920994208577,6.50123405570713],[6.661695818407338,6.557928405671419],[6.661944865862893,6.572853565139951],[6.659196425274843,6.607753262603012],[6.652776241630306,6.634282111830032],[6.628021717028673,6.67462348918275],[6.617936134145339,6.704879283652076],[6.621603489409551,6.722299098624546],[6.626187802425193,6.731467723756509],[6.631689072292886,6.769058228754318],[6.623548984697948,6.790752888335192],[6.623610019886542,6.793598175115733]]]}},{"type":"Feature","properties":{"name":"Etsako West","lga":"Etsako West","state":"Edo","level":"lga","center_lat":6.973632,"center_lng":6.308913},"geometry":{"type":"Polygon","coordinates":[[[6.250658035040317,6.836287022228362],[6.260694980788799,6.816983222897477],[6.266188145066906,6.800405979152686],[6.266205787966783,6.794864177739669],[6.271655083315466,6.792143822079765],[6.273457050402612,6.795855998655441],[6.280700206349479,6.799620152448142],[6.285219192611692,6.804282187572937],[6.303277968703355,6.828472136679807],[6.313264845596223,6.82487106324902],[6.322336197357686,6.824032783586119],[6.339580059072489,6.819577216615301],[6.379269122172275,6.813684940407711],[6.398548125395735,6.811820983951293],[6.40668582888793,6.819289206931387],[6.424746036700299,6.843479156038256],[6.429246901623287,6.853682995274085],[6.464454174420666,6.903901100555402],[6.483428954982344,6.925326824173624],[6.477665830413798,6.929744115998176],[6.458928148015673,6.93422275687476],[6.445929695199311,6.934685088446145],[6.43265379613581,6.932796836804641],[6.411969960145598,6.939104183411359],[6.396197218426948,6.932431750724788],[6.381401286140488,6.92962466084947],[6.372779170022739,6.932807297718682],[6.367897387354617,6.940061372334526],[6.368175029653969,6.952873230215459],[6.359033637792209,6.961626281327881],[6.354918412055099,6.971783343226775],[6.351548113654587,6.998271828182396],[6.36586873175662,7.013256081203224],[6.363133593940233,7.019886124345192],[6.36713202202526,7.029333821698572],[6.36888002978958,7.03789128915173],[6.361967496103091,7.048447283115649],[6.388656138669887,7.071311950785969],[6.39318418470242,7.073203086553235],[6.407658100341109,7.084424972734325],[6.417596816739774,7.095604897448084],[6.420300007039714,7.101172923991271],[6.422014236268012,7.132597924354798],[6.415596008648947,7.154707909742285],[6.414650917405936,7.166707992779664],[6.376522063842231,7.180203914579067],[6.365640163662647,7.180100917923085],[6.35837411907039,7.183728218282681],[6.336602211323054,7.186293125227621],[6.329339026574871,7.188994883806913],[6.283073902138938,7.194099903387894],[6.264008999615669,7.201310159436332],[6.256732941072414,7.207706928332129],[6.254031180694483,7.202138900889622],[6.249507904666132,7.198400974025787],[6.237775803410671,7.180737971580186],[6.22606706564261,7.15568494940095],[6.211626052600309,7.1343011845521],[6.198979855236189,7.118476867613424],[6.184488773338273,7.112796782845294],[6.18031787956653,7.112758159661382],[6.185437201965328,7.099873066388966],[6.202735900741288,7.077866077657404],[6.213683127674244,7.057645797215798],[6.219188211566745,7.037374973076567],[6.219266890554593,7.012434006424314],[6.215715885080101,6.988380909851173],[6.214962005891891,6.940337180916231],[6.207763194615779,6.922717094118639],[6.187931060669939,6.885578155807309],[6.178926945821956,6.865169047413644],[6.177152157146395,6.853143214987426],[6.170851230799713,6.838303088217003],[6.167360782973788,6.823766231726268],[6.18540382362761,6.824584006846464],[6.19537019687715,6.827449799069029],[6.199894904626206,6.830264090715275],[6.214397907037835,6.8322491651669],[6.228891850578464,6.837005138076734],[6.235228061825637,6.840760231199738],[6.241571902921009,6.841743945626661],[6.250658035040317,6.836287022228362]]]}},{"type":"Feature","properties":{"name":"Owan West","lga":"Owan West","state":"Edo","level":"lga","center_lat":6.913487,"center_lng":5.893672},"geometry":{"type":"Polygon","coordinates":[[[6.04481133417579,6.776801319625235],[6.046483602836076,6.781272145393245],[6.043052197301108,6.818616866575155],[6.04572486910746,6.833423138367209],[6.044764996607341,6.850041866938682],[6.042033195275792,6.853712082047025],[6.037498951115765,6.853669167298278],[6.023906230787986,6.850769042557317],[6.019381046398223,6.847953795831074],[6.015737056420051,6.853463173086993],[6.005677222925556,6.880156993950152],[6.00107479036933,6.901360989717944],[6.001058101650131,6.906902790231641],[5.996489047431623,6.917944907331673],[5.972817898327378,6.947281836587536],[5.969085217209056,6.98050403583261],[5.975377082886098,6.998115062859938],[5.985292912438013,7.016685009105913],[5.992517947944975,7.025990963412255],[5.991581917371661,7.035220146192842],[5.987032890155831,7.03979587607887],[5.984292984133958,7.046236038162704],[5.981563091163764,7.04898214231207],[5.941596985612421,7.069849967901746],[5.906197070838175,7.080601214574415],[5.898036002959202,7.080523014025914],[5.881700993406184,7.084064007348104],[5.877170086630258,7.083096980741118],[5.869006157108515,7.083943844432895],[5.852578163051817,7.093998909721961],[5.829487800621564,7.081976891320551],[5.823740959177997,7.08144092595802],[5.815583228683124,7.07159805300779],[5.809593200665745,7.05124521339593],[5.804257870104664,7.048537253991128],[5.796177864416961,7.024290562159763],[5.792581080752313,7.021655082715938],[5.79400920865811,7.015619754947807],[5.793781280881433,7.005321026444278],[5.789217472408495,6.992368698057021],[5.788356780740912,6.98036003099071],[5.785642146567852,6.96834135087272],[5.792204379928251,6.955450535214084],[5.799811840444136,6.921328545376127],[5.797993658580538,6.914855002256616],[5.789725780020774,6.900958537706401],[5.787907599955815,6.894484996385529],[5.787108421016853,6.871396542316631],[5.778835771553645,6.858423710286047],[5.77422571184718,6.853781222825205],[5.769666671579671,6.839905738559025],[5.777176856027154,6.823326588251518],[5.778134822863819,6.81779193824741],[5.770835399933787,6.796514034395216],[5.757921218989111,6.784439087294118],[5.751592635791553,6.781640052646367],[5.757518767876888,6.781733990431349],[5.777440071402225,6.7911601076529],[5.792798996376632,6.808856964177608],[5.797325134047753,6.81167221180317],[5.801857948285715,6.811715126551917],[5.830898762268134,6.804598807389084],[5.870091733246966,6.797244866657309],[5.884612378558472,6.793686708874588],[5.951505142148619,6.788570874945947],[5.966042153322746,6.785937859644548],[5.981476419001581,6.780541969636261],[5.990259256559511,6.781664105913819],[6.012048329666754,6.773555012553857],[6.022935477390433,6.771811219012591],[6.04481133417579,6.776801319625235]]]}},{"type":"Feature","properties":{"name":"Esan North-East","lga":"Esan North-East","state":"Edo","level":"lga","center_lat":6.757747,"center_lng":6.372493},"geometry":{"type":"Polygon","coordinates":[[[6.53014085721486,6.793418537335697],[6.53007698106785,6.799210072386984],[6.522715092127839,6.833321094992584],[6.522347022097449,6.841633267861084],[6.525371075214991,6.853669167298278],[6.528224787743795,6.856008553052334],[6.521652222072419,6.882270814446599],[6.505257130612108,6.905210017928027],[6.483428954982344,6.925326824173624],[6.464454174420666,6.903901100555402],[6.429246901623287,6.853682995274085],[6.424746036700299,6.843479156038256],[6.40668582888793,6.819289206931387],[6.398548125395735,6.811820983951293],[6.379269122172275,6.813684940407711],[6.378615856436681,6.806089877945567],[6.380487919382006,6.787631989025101],[6.377802848622594,6.7765212059889],[6.377831935395534,6.767282963438049],[6.375123977789372,6.763563156114799],[6.366066932443005,6.759781836962247],[6.347035884898219,6.755907057564684],[6.32436084737526,6.757538794679704],[6.314389228380207,6.756521225274355],[6.296249865838661,6.757273197899792],[6.285375117967362,6.755322934405967],[6.265445232211732,6.748668194081915],[6.25185298942398,6.745768069340954],[6.244322696135555,6.74232990360224],[6.238977979350295,6.737588018572239],[6.237312755978962,6.734767974862223],[6.241961955979548,6.718883992402368],[6.241090774619579,6.707789898085366],[6.245625018779663,6.707832812834113],[6.249279022708777,6.699553013760635],[6.248401164781967,6.690308093743567],[6.249326229022302,6.684772967998128],[6.252071857430337,6.676486014817783],[6.257538794779578,6.668222903564185],[6.264313219579492,6.648426056317476],[6.284758091312938,6.663862227659706],[6.310135840696546,6.6677980413466],[6.324533350833519,6.665280197723007],[6.338625362170774,6.667736873957608],[6.372702162874589,6.672748061873619],[6.377299837117846,6.675760385133742],[6.378839363146142,6.680147709749065],[6.373497963060572,6.704424858020843],[6.385172872829855,6.710109600377791],[6.397047996867627,6.712962151881868],[6.429689884280776,6.714194775268709],[6.435112952700649,6.719789027841387],[6.434171199741115,6.730865001718485],[6.428662777565194,6.752059936816693],[6.431306839239312,6.776103973619513],[6.517399788569435,6.793547152978761],[6.53014085721486,6.793418537335697]]]}},{"type":"Feature","properties":{"name":"Owan East","lga":"Owan East","state":"Edo","level":"lga","center_lat":7.075629,"center_lng":6.008694},"geometry":{"type":"Polygon","coordinates":[[[6.18031787956653,7.112758159661382],[6.167149067275659,7.147737026242794],[6.164381026862941,7.162490845076491],[6.161640166660391,7.168931961341002],[6.148898124948573,7.183590889108302],[6.138001918353893,7.188107014627064],[6.12439107938485,7.190750122120505],[6.100776196364393,7.202536106256332],[6.075263022570482,7.241093159421837],[6.066176889551855,7.246550082820136],[6.055302142579876,7.244598866044896],[6.04081106158128,7.238918780377446],[6.033549786093829,7.240697860617843],[6.024481772615786,7.240612030221087],[6.019067763966177,7.232246875592864],[6.012732027561071,7.22849178157054],[6.010003089670874,7.231236935136508],[6.005465983868135,7.232118130447418],[5.997323036429009,7.226498127586581],[5.991885184953389,7.225522993591312],[5.987348080049912,7.226404190700862],[5.967329978895464,7.247460842443957],[5.941007135570885,7.255526065975232],[5.931923865993667,7.260058880213194],[5.925564766101104,7.263693810421046],[5.909392834211985,7.277768134791643],[5.905289172857067,7.270805836220404],[5.904650210838611,7.265564919185692],[5.896522044656706,7.258053779658269],[5.895890235845741,7.253396033400293],[5.898660182821232,7.245212077775193],[5.897339821575542,7.23123312021238],[5.904098987578266,7.22068500520885],[5.903481007642426,7.217193126561597],[5.884325027178306,7.199862003628596],[5.883665084875815,7.192872047307162],[5.893909929599602,7.185792922305552],[5.893875121339818,7.182878969588842],[5.882308960290345,7.175979137027582],[5.872960090335937,7.162648201253546],[5.871696947556131,7.153330803074141],[5.868175030653163,7.14694786125483],[5.867528915427158,7.141123773443439],[5.862779139745555,7.128338813385596],[5.860455036171004,7.126026153684109],[5.844311236874148,7.120328903556128],[5.842559812585307,7.118010997209808],[5.843033791276468,7.109847068587385],[5.850976944430499,7.102203845631038],[5.854922771169015,7.096343040299132],[5.852578163051817,7.093998909721961],[5.869006157108515,7.083943844432895],[5.877170086630258,7.083096980741118],[5.881700993406184,7.084064007348104],[5.898036002959202,7.080523014025914],[5.906197070838175,7.080601214574415],[5.941596985612421,7.069849967901746],[5.981563091163764,7.04898214231207],[5.984292984133958,7.046236038162704],[5.987032890155831,7.03979587607887],[5.991581917371661,7.035220146192842],[5.992517947944975,7.025990963412255],[5.985292912438013,7.016685009105913],[5.975377082886098,6.998115062859938],[5.969085217209056,6.98050403583261],[5.972817898327378,6.947281836587536],[5.996489047431623,6.917944907331673],[6.001058101650131,6.906902790231641],[6.00107479036933,6.901360989717944],[6.005677222925556,6.880156993950152],[6.015737056420051,6.853463173086993],[6.019381046398223,6.847953795831074],[6.023906230787986,6.850769042557317],[6.037498951115765,6.853669167298278],[6.042033195275792,6.853712082047025],[6.044764996607341,6.850041866938682],[6.04572486910746,6.833423138367209],[6.043052197301108,6.818616866575155],[6.046483602836076,6.781272145393245],[6.04481133417579,6.776801319625235],[6.05677413941504,6.7808718688417],[6.101112843183216,6.810853004062949],[6.113788128219596,6.817440034430092],[6.141874790289364,6.825096130282247],[6.167360782973788,6.823766231726268],[6.170851230799713,6.838303088217003],[6.177152157146395,6.853143214987426],[6.178926945821956,6.865169047413644],[6.187931060669939,6.885578155807309],[6.207763194615779,6.922717094118639],[6.214962005891891,6.940337180916231],[6.215715885080101,6.988380909851173],[6.219266890554593,7.012434006424314],[6.219188211566745,7.037374973076567],[6.213683127674244,7.057645797215798],[6.202735900741288,7.077866077657404],[6.185437201965328,7.099873066388966],[6.18031787956653,7.112758159661382]]]}},{"type":"Feature","properties":{"name":"Esan Central","lga":"Esan Central","state":"Edo","level":"lga","center_lat":6.726999,"center_lng":6.250116},"geometry":{"type":"Polygon","coordinates":[[[6.250658035040317,6.836287022228362],[6.24615287855255,6.827006817310803],[6.230653841001981,6.804833775958059],[6.216320037939454,6.798087120424327],[6.209095000633795,6.788781166117985],[6.211853981276249,6.776796817619072],[6.219755910407002,6.768205940351891],[6.220541131867776,6.764137062975124],[6.205607891091347,6.744406223268641],[6.193345936265985,6.733454574369148],[6.185793633869139,6.733289493915038],[6.170341014826022,6.713586806585909],[6.168552876614001,6.705255985375459],[6.172226905747152,6.690509796390018],[6.182260989852864,6.672130108018109],[6.185919761987464,6.662003040308093],[6.193212985890625,6.650062084097954],[6.194146155720546,6.641757011377024],[6.191454886833583,6.632493019437334],[6.164336204652159,6.605446815418247],[6.135371208014874,6.588543892086989],[6.136295794715181,6.583011150444293],[6.142832687878297,6.578114098187143],[6.16987323875901,6.575015067691254],[6.182557106025683,6.578829765181581],[6.207902907892958,6.592926979096831],[6.210586071190278,6.604960918012011],[6.217795848799426,6.618885993593778],[6.224123001175599,6.625411986973688],[6.244946956936587,6.635770798283772],[6.264313219579492,6.648426056317476],[6.257538794779578,6.668222903564185],[6.252071857430337,6.676486014817783],[6.249326229022302,6.684772967998128],[6.248401164781967,6.690308093743567],[6.249279022708777,6.699553013760635],[6.245625018779663,6.707832812834113],[6.241090774619579,6.707789898085366],[6.241961955979548,6.718883992402368],[6.237312755978962,6.734767974862223],[6.238977979350295,6.737588018572239],[6.244322696135555,6.74232990360224],[6.25185298942398,6.745768069340954],[6.265445232211732,6.748668194081915],[6.285375117967362,6.755322934405967],[6.296249865838661,6.757273197899792],[6.314389228380207,6.756521225274355],[6.32436084737526,6.757538794679704],[6.347035884898219,6.755907057564684],[6.366066932443005,6.759781836962247],[6.375123977789372,6.763563156114799],[6.377831935395534,6.767282963438049],[6.377802848622594,6.7765212059889],[6.380487919382006,6.787631989025101],[6.378615856436681,6.806089877945567],[6.379269122172275,6.813684940407711],[6.339580059072489,6.819577216615301],[6.322336197357686,6.824032783586119],[6.313264845596223,6.82487106324902],[6.303277968703355,6.828472136679807],[6.285219192611692,6.804282187572937],[6.280700206349479,6.799620152448142],[6.273457050402612,6.795855998655441],[6.271655083315466,6.792143822079765],[6.266205787966783,6.794864177739669],[6.266188145066906,6.800405979152686],[6.260694980788799,6.816983222897477],[6.250658035040317,6.836287022228362]]]}},{"type":"Feature","properties":{"name":"Ikpoba-Okha","lga":"Ikpoba-Okha","state":"Edo","level":"lga","center_lat":6.160155,"center_lng":5.625245},"geometry":{"type":"Polygon","coordinates":[[[5.473677635014894,6.027351856403072],[5.484179496986258,6.027750015051197],[5.489745140326022,6.03004169536797],[5.491382122287177,6.03855419222225],[5.494328499160929,6.041828156144561],[5.497275351776125,6.042482852701539],[5.500876427005551,6.036589622313272],[5.512989998189937,6.035280228299939],[5.518883227678884,6.027422428002694],[5.515282154248041,6.02185678466293],[5.519210814727387,6.016291142222485],[5.523467064053818,6.012690066993059],[5.532633780824369,6.011707783387521],[5.534598350733347,6.009743214377863],[5.532306671315894,6.004177570138779],[5.536596774721431,5.98990201976244],[5.546327591245415,5.985361575676222],[5.57127380364318,5.99088382672727],[5.583425998910798,6.011096001579233],[5.593595028088146,6.018115997055645],[5.605134009826713,6.02306604366305],[5.61600780531603,6.0245428087037],[5.626190185828477,6.02878904407919],[5.657452105830089,6.033209801890905],[5.668930054178702,6.052030087018977],[5.698933124763926,6.033555984221323],[5.764177322225692,5.997814177782118],[5.756297111722404,6.024216174936555],[5.747152805157896,6.048148155313186],[5.738945005807409,6.062850952009853],[5.734357833847014,6.07943582470358],[5.727054119352147,6.095070838848187],[5.730671883300829,6.097877025804166],[5.733356953160921,6.10898685465969],[5.74327278091414,6.127556800905666],[5.745028019227732,6.146049023243904],[5.754048823694291,6.160914897604471],[5.755834102961558,6.170169829773897],[5.753941058832822,6.195095062786947],[5.768382070975861,6.21647787075716],[5.784675120860186,6.225871086281643],[5.801900863933781,6.226956844083134],[5.816398143959248,6.230790137754695],[5.819116116415671,6.231739998102455],[5.823635100879244,6.236401080845269],[5.82540512134932,6.250275135189383],[5.827546120257296,6.252757071581641],[5.81710004772907,6.264923095724328],[5.806726932701849,6.282730103011886],[5.796032906293647,6.289443015982442],[5.780138968338747,6.304595946745621],[5.763204098390474,6.315147876673223],[5.762084475718041,6.308355279272746],[5.764559115011195,6.282276386945739],[5.75627859108414,6.283513705692997],[5.689939218120458,6.323203115931108],[5.705179402907163,6.341013933646195],[5.702677265943123,6.341540829345831],[5.705947500376908,6.370208100923151],[5.701799069871242,6.374447901649376],[5.69941960942748,6.374590669923521],[5.697635012745707,6.376827362992458],[5.685129960379413,6.369317280168389],[5.680003206882532,6.371104759177342],[5.67178540617158,6.377270967081529],[5.650310770225929,6.377746858630644],[5.644706769901575,6.370216555449701],[5.649134158414711,6.359459876871881],[5.648239136027371,6.355757235807857],[5.637392997388986,6.344567775582448],[5.633814811704269,6.328829765681178],[5.629313945881961,6.318625927344726],[5.628438949597921,6.308455943986701],[5.629368782043684,6.30107498312401],[5.62759113262473,6.289971828137425],[5.632225036955958,6.258606910580511],[5.627758980292754,6.237318038596641],[5.621446133432357,6.226171969760628],[5.61782980030506,6.222443103566434],[5.606956958996534,6.219569205754283],[5.590638160622689,6.218491077801048],[5.58339023557096,6.216574191745622],[5.576147078724773,6.212810993032974],[5.5707240103049,6.207217216201627],[5.556949926398033,6.174917206963585],[5.546117615735454,6.159110055384815],[5.538014722301625,6.140558227780048],[5.531655088211778,6.121397983630061],[5.522077083590602,6.106062888891245],[5.520284176273776,6.099579811159401],[5.516268768089219,6.092578373193419],[5.512649574218528,6.089772188036079],[5.509022749600263,6.089738331259014],[5.499029672781205,6.095186195786368],[5.493586578258032,6.096058332226278],[5.480899848449269,6.09316631397428],[5.463652646652349,6.098546466746086],[5.460454941642297,6.092545985908544],[5.458668231553702,6.084216117979508],[5.455959797306832,6.080494880734193],[5.442778489835462,6.041352430969937],[5.452094555219617,6.034297942895819],[5.453403949232893,6.025130748585241],[5.45619106336693,6.022396564050212],[5.465517997957306,6.027750015051197],[5.473677635014894,6.027351856403072]]]}},{"type":"Feature","properties":{"name":"Igueben","lga":"Igueben","state":"Edo","level":"lga","center_lat":6.511834,"center_lng":6.242431},"geometry":{"type":"Polygon","coordinates":[[[6.338625362170774,6.667736873957608],[6.324533350833519,6.665280197723007],[6.310135840696546,6.6677980413466],[6.284758091312938,6.663862227659706],[6.264313219579492,6.648426056317476],[6.244946956936587,6.635770798283772],[6.224123001175599,6.625411986973688],[6.217795848799426,6.618885993593778],[6.210586071190278,6.604960918012011],[6.207902907892958,6.592926979096831],[6.207019806019275,6.585527896894973],[6.20887517934608,6.572611809387524],[6.212540151406927,6.560637950580997],[6.215344906642201,6.533874988939658],[6.223053226125558,6.523966422312583],[6.223113299938916,6.497727500124086],[6.196708960050501,6.496357943264513],[6.190985203304535,6.494844913062309],[6.169219017044043,6.49556302981],[6.16286611617835,6.497350215639983],[6.129343032554971,6.487793921552282],[6.113947867600075,6.48118305195635],[6.115452013399761,6.47286032284569],[6.1148809412025,6.466483367813225],[6.106042913149963,6.462922673042954],[6.116774081558674,6.44795322466166],[6.122259140247195,6.434147835354395],[6.125904084406045,6.428638935638389],[6.131688118212139,6.404486178894103],[6.132882618438146,6.405396537420302],[6.152238846445641,6.416880130813411],[6.168554783176774,6.418881893084972],[6.195762157397667,6.418216228396261],[6.215703011284972,6.421175958403808],[6.224782944377409,6.417566775786099],[6.245729922897681,6.389128208100374],[6.269393920593018,6.361638069041703],[6.276096821411215,6.357798099702563],[6.279860020123863,6.358500004371763],[6.28161621081955,6.360329150769758],[6.286582947045417,6.37473392473089],[6.298312186658109,6.393321037236149],[6.306408881964387,6.413721084960173],[6.303674220788707,6.418313980206051],[6.285513877963126,6.425531864304162],[6.28096008344113,6.431954861927409],[6.294465065010797,6.462567805959509],[6.297132968611663,6.479221820330793],[6.284401894132145,6.490187167703652],[6.278028011183835,6.498439788365602],[6.273474215762519,6.504864215910857],[6.270720958405548,6.514998912569808],[6.261614798384301,6.526922225880071],[6.278789043579536,6.544637202844683],[6.285089015745541,6.559476852075136],[6.295929908638414,6.572513103397057],[6.30226898242762,6.575344085561142],[6.324923992048639,6.580177784177465],[6.334867001810721,6.590434074572954],[6.338451862263696,6.603400230036641],[6.35016679815925,6.626605988075937],[6.348309994011061,6.640445232361628],[6.34373521830571,6.65333509383953],[6.339182854605099,6.658833981403177],[6.338625362170774,6.667736873957608]]]}},{"type":"Feature","properties":{"name":"Uhunmwonde","lga":"Uhunmwonde","state":"Edo","level":"lga","center_lat":6.479231,"center_lng":5.902137},"geometry":{"type":"Polygon","coordinates":[[[5.870091733246966,6.797244866657309],[5.86325257074958,6.782498156065117],[5.8531423752205,6.769804432228796],[5.849585169819761,6.747600509955646],[5.844200247943149,6.72999758941728],[5.839681261680937,6.725335551594469],[5.836077326607381,6.717910244262384],[5.829041628068751,6.691777694784832],[5.82150965484675,6.676576830156648],[5.819724378277499,6.667321897987279],[5.813230038335632,6.657549858339337],[5.796875275173875,6.612688706918334],[5.795994080762284,6.604366946377525],[5.791487015913106,6.596008944057587],[5.776132859144184,6.576464817997021],[5.769818104821752,6.566242861019248],[5.757166184172092,6.552266764199828],[5.723683156352649,6.530701803045815],[5.686773777188137,6.50023221994104],[5.654238223815014,6.46574401897135],[5.644300938237734,6.453639984197935],[5.638906955691482,6.438808918097152],[5.638930797618286,6.431418895665558],[5.643487930423703,6.424071788881974],[5.6450720547316,6.418592049683411],[5.644175123982848,6.415812089656242],[5.641586850852548,6.414154127411109],[5.63990497743282,6.410181045818661],[5.644510573803984,6.387528768338029],[5.644706769901575,6.370216555449701],[5.650310770225929,6.377746858630644],[5.67178540617158,6.377270967081529],[5.680003206882532,6.371104759177342],[5.685129960379413,6.369317280168389],[5.697635012745707,6.376827362992458],[5.69941960942748,6.374590669923521],[5.701799069871242,6.374447901649376],[5.705947500376908,6.370208100923151],[5.702677265943123,6.341540829345831],[5.705179402907163,6.341013933646195],[5.689939218120458,6.323203115931108],[5.75627859108414,6.283513705692997],[5.764559115011195,6.282276386945739],[5.762084475718041,6.308355279272746],[5.763204098390474,6.315147876673223],[5.780138968338747,6.304595946745621],[5.796032906293647,6.289443015982442],[5.806726932701849,6.282730103011886],[5.81710004772907,6.264923095724328],[5.827546120257296,6.252757071581641],[5.82540512134932,6.250275135189383],[5.823635100879244,6.236401080845269],[5.884695349111098,6.222242174336941],[5.899685953144285,6.205466972722661],[5.915478474552003,6.204447024610545],[5.91323599974163,6.240521000144099],[5.924100999861309,6.241949998593611],[5.940202999568839,6.253428000002259],[5.943751000408383,6.2588980004424],[5.945708999870476,6.265776000162305],[5.954668000228082,6.277836999677845],[5.962193596357451,6.284930892446766],[5.966718404830544,6.308306411012097],[5.983660168082338,6.324486746166428],[5.991845513159944,6.323154248569779],[5.999269431938785,6.329245667953273],[6.012070932327731,6.333861823264556],[6.024348950843432,6.342570650215407],[6.040111339566693,6.336197840158263],[6.07370932862267,6.351902281964783],[6.081323604201032,6.352568533011436],[6.092163588778646,6.365841779974232],[6.113737812050431,6.381901337077068],[6.120125531967801,6.381714109918278],[6.132234761225277,6.376561289571896],[6.138703263644743,6.387831671694357],[6.132397692299719,6.398979445644954],[6.132882618438146,6.405396537420302],[6.131688118212139,6.404486178894103],[6.125904084406045,6.428638935638389],[6.122259140247195,6.434147835354395],[6.116774081558674,6.44795322466166],[6.106042913149963,6.462922673042954],[6.103988170917376,6.476469039614528],[6.09944009788228,6.481044768601237],[6.090298176319834,6.504053115558861],[6.081573056351544,6.513322141004039],[6.07933187476624,6.530738830832433],[6.072926044301539,6.549153805004153],[6.072848797034396,6.57317209241819],[6.075558186361263,6.576892853022798],[6.079137801968045,6.591707230404381],[6.084537982641848,6.60469198204936],[6.087204932961356,6.621345043139286],[6.086259841718345,6.633345127075984],[6.088936805988851,6.647226810369034],[6.088494403394066,6.671990090770123],[6.095656828100175,6.675235415781856],[6.095049352245837,6.681514824049941],[6.084824449988446,6.683690833565151],[6.079721927824778,6.693328857141069],[6.072443961819431,6.70065116871649],[6.070615767803474,6.705252171350651],[6.025117873890792,6.754705905952846],[6.017819880882826,6.768494129000885],[6.012048329666754,6.773555012553857],[5.990259256559511,6.781664105913819],[5.981476419001581,6.780541969636261],[5.966042153322746,6.785937859644548],[5.951505142148619,6.788570874945947],[5.884612378558472,6.793686708874588],[5.870091733246966,6.797244866657309]]]}},{"type":"Feature","properties":{"name":"Orhionmwon","lga":"Orhionmwon","state":"Edo","level":"lga","center_lat":6.134659,"center_lng":6.040732},"geometry":{"type":"Polygon","coordinates":[[[6.28161621081955,6.360329150769758],[6.279860020123863,6.358500004371763],[6.276096821411215,6.357798099702563],[6.269393920593018,6.361638069041703],[6.245729922897681,6.389128208100374],[6.224782944377409,6.417566775786099],[6.215703011284972,6.421175958403808],[6.195762157397667,6.418216228396261],[6.168554783176774,6.418881893084972],[6.152238846445641,6.416880130813411],[6.132882618438146,6.405396537420302],[6.132397692299719,6.398979445644954],[6.138703263644743,6.387831671694357],[6.132234761225277,6.376561289571896],[6.120125531967801,6.381714109918278],[6.113737812050431,6.381901337077068],[6.092163588778646,6.365841779974232],[6.081323604201032,6.352568533011436],[6.07370932862267,6.351902281964783],[6.040111339566693,6.336197840158263],[6.024348950843432,6.342570650215407],[6.012070932327731,6.333861823264556],[5.999269431938785,6.329245667953273],[5.991845513159944,6.323154248569779],[5.983660168082338,6.324486746166428],[5.966718404830544,6.308306411012097],[5.962193596357451,6.284930892446766],[5.954668000228082,6.277836999677845],[5.945708999870476,6.265776000162305],[5.943751000408383,6.2588980004424],[5.940202999568839,6.253428000002259],[5.924100999861309,6.241949998593611],[5.91323599974163,6.240521000144099],[5.915478474552003,6.204447024610545],[5.899685953144285,6.205466972722661],[5.884695349111098,6.222242174336941],[5.823635100879244,6.236401080845269],[5.819116116415671,6.231739998102455],[5.816398143959248,6.230790137754695],[5.801900863933781,6.226956844083134],[5.784675120860186,6.225871086281643],[5.768382070975861,6.21647787075716],[5.753941058832822,6.195095062786947],[5.755834102961558,6.170169829773897],[5.754048823694291,6.160914897604471],[5.745028019227732,6.146049023243904],[5.74327278091414,6.127556800905666],[5.733356953160921,6.10898685465969],[5.730671883300829,6.097877025804166],[5.727054119352147,6.095070838848187],[5.734357833847014,6.07943582470358],[5.738945005807409,6.062850952009853],[5.747152805157896,6.048148155313186],[5.756297111722404,6.024216174936555],[5.764177322225692,5.997814177782118],[5.79505681991634,5.979569912021873],[5.812038897976834,5.983871936840444],[5.822996139760107,5.966627120944906],[5.830506801747561,5.959753990154582],[5.835303782843368,5.951471806079041],[5.83331012706077,5.941052913760984],[5.921317100803606,5.877292156108183],[5.906504154243351,5.843882083991048],[5.906404018330818,5.825979233255055],[5.902400970428516,5.811059951755396],[5.894185114951142,5.798591687056785],[5.902640819618171,5.794611930696078],[5.906779765873523,5.781470777054778],[5.906148911243292,5.770370007070198],[5.924606800163758,5.748332024103661],[5.94093704241061,5.746387004556652],[5.958599090675534,5.750695229301414],[5.981730937033149,5.748114109378719],[6.004464625642015,5.760642052188985],[6.01566219325565,5.764347075557112],[6.03978013994157,5.76461076667357],[6.061857223631989,5.77513313318758],[6.073625564867996,5.786473273922525],[6.075937270388749,5.786094188995662],[6.093735217906044,5.794122219265034],[6.101854800958336,5.803205013100921],[6.1208791728356,5.839725018195054],[6.151937007886659,5.857713222687153],[6.17970991088373,5.882215976686041],[6.201406002185308,5.896959781568739],[6.207487106344956,5.90602588668537],[6.217640876725113,5.916512012319572],[6.229115009250336,5.93602609742652],[6.233819961821837,5.948546886129918],[6.243769646352121,5.967384815057244],[6.245960235676364,5.97153282198218],[6.247943878407284,5.984033107941627],[6.25663995656879,6.016697884000223],[6.240956782829301,6.026277064934675],[6.232762814152579,6.033836841597008],[6.243274393298634,6.053020789178106],[6.244851975937991,6.053682279213888],[6.240929196125535,6.055820748328927],[6.220484866683307,6.053136716286474],[6.195523070833076,6.054463880903427],[6.169303894159441,6.082546234321285],[6.163812159803399,6.094288826168452],[6.14808320967245,6.114270209802385],[6.134387016047981,6.135653018671917],[6.115742206637549,6.199992179795288],[6.112161160209439,6.240878104740773],[6.084858894022773,6.263535022723147],[6.07663202274972,6.27872276264543],[6.086105823824767,6.289205074254824],[6.086041926993403,6.303767204393012],[6.08801698659471,6.318346977431133],[6.11304283126168,6.349068164764049],[6.126613139584776,6.356115817990656],[6.140926838303017,6.348607062565918],[6.167523860637687,6.331490992715203],[6.18049001700075,6.32119703331648],[6.188703060298053,6.309475899293375],[6.193511008626217,6.298419952418897],[6.197598933643917,6.282746315090435],[6.212637901418077,6.279160976198114],[6.246644019006339,6.312650203943804],[6.253943920375661,6.319034099943792],[6.261365890323646,6.3322720530129],[6.281655788184139,6.357406139182046],[6.290318012266482,6.361868381820386],[6.28161621081955,6.360329150769758]]]}},{"type":"Feature","properties":{"name":"Etsako Central","lga":"Etsako Central","state":"Edo","level":"lga","center_lat":6.972338,"center_lng":6.499953},"geometry":{"type":"Polygon","coordinates":[[[6.679260254257372,6.972002506210742],[6.655547141887155,6.981461047589335],[6.641936778659442,6.98410320270068],[6.611095905052025,6.986581801708837],[6.591129780215226,6.9919362068905],[6.556632996115923,7.003619194370344],[6.532100201163416,7.019091129052413],[6.528458117747959,7.023674966326666],[6.527536869331129,7.028285980213866],[6.529308796363921,7.041234970317703],[6.53646993593884,7.070864200822257],[6.535466193609977,7.101339816579298],[6.531813144760861,7.109619140810764],[6.523615836901399,7.120626926291663],[6.519965172155025,7.127983092845511],[6.510861873776491,7.138981818556147],[6.505383015014161,7.150938987744155],[6.440954207670586,7.165110110643127],[6.424636841017445,7.163107871730972],[6.414650917405936,7.166707992779664],[6.415596008648947,7.154707909742285],[6.422014236268012,7.132597924354798],[6.420300007039714,7.101172923991271],[6.417596816739774,7.095604897448084],[6.407658100341109,7.084424972734325],[6.39318418470242,7.073203086553235],[6.388656138669887,7.071311950785969],[6.361967496103091,7.048447283115649],[6.36888002978958,7.03789128915173],[6.36713202202526,7.029333821698572],[6.363133593940233,7.019886124345192],[6.36586873175662,7.013256081203224],[6.351548113654587,6.998271828182396],[6.354918412055099,6.971783343226775],[6.359033637792209,6.961626281327881],[6.368175029653969,6.952873230215459],[6.367897387354617,6.940061372334526],[6.372779170022739,6.932807297718682],[6.381401286140488,6.92962466084947],[6.396197218426948,6.932431750724788],[6.411969960145598,6.939104183411359],[6.43265379613581,6.932796836804641],[6.445929695199311,6.934685088446145],[6.458928148015673,6.93422275687476],[6.477665830413798,6.929744115998176],[6.483428954982344,6.925326824173624],[6.505257130612108,6.905210017928027],[6.521652222072419,6.882270814446599],[6.528224787743795,6.856008553052334],[6.525371075214991,6.853669167298278],[6.522347022097449,6.841633267861084],[6.522715092127839,6.833321094992584],[6.53007698106785,6.799210072386984],[6.53014085721486,6.793418537335697],[6.584594519321683,6.790061912227543],[6.593578814910416,6.791497231112373],[6.616251944971339,6.790788174135002],[6.623610019886542,6.793598175115733],[6.623661041124194,6.79599618857327],[6.620317936423703,6.80012798341977],[6.610790253367554,6.822104931197657],[6.614145278581816,6.830828668008678],[6.621633530363169,6.841525555160274],[6.646236896915298,6.885384561448404],[6.652655602074447,6.907848358115302],[6.672980309094044,6.93566131601699],[6.679260254257372,6.972002506210742]]]}},{"type":"Feature","properties":{"name":"Esan West","lga":"Esan West","state":"Edo","level":"lga","center_lat":6.662667,"center_lng":6.147305},"geometry":{"type":"Polygon","coordinates":[[[6.167360782973788,6.823766231726268],[6.141874790289364,6.825096130282247],[6.113788128219596,6.817440034430092],[6.101112843183216,6.810853004062949],[6.05677413941504,6.7808718688417],[6.04481133417579,6.776801319625235],[6.022935477390433,6.771811219012591],[6.012048329666754,6.773555012553857],[6.017819880882826,6.768494129000885],[6.025117873890792,6.754705905952846],[6.070615767803474,6.705252171350651],[6.072443961819431,6.70065116871649],[6.079721927824778,6.693328857141069],[6.084824449988446,6.683690833565151],[6.095049352245837,6.681514824049941],[6.095656828100175,6.675235415781856],[6.088494403394066,6.671990090770123],[6.088936805988851,6.647226810369034],[6.086259841718345,6.633345127075984],[6.087204932961356,6.621345043139286],[6.084537982641848,6.60469198204936],[6.079137801968045,6.591707230404381],[6.075558186361263,6.576892853022798],[6.072848797034396,6.57317209241819],[6.072926044301539,6.549153805004153],[6.07933187476624,6.530738830832433],[6.081573056351544,6.513322141004039],[6.090298176319834,6.504053115558861],[6.09944009788228,6.481044768601237],[6.103988170917376,6.476469039614528],[6.106042913149963,6.462922673042954],[6.1148809412025,6.466483367813225],[6.115452013399761,6.47286032284569],[6.113947867600075,6.48118305195635],[6.129343032554971,6.487793921552282],[6.16286611617835,6.497350215639983],[6.169219017044043,6.49556302981],[6.190985203304535,6.494844913062309],[6.196708960050501,6.496357943264513],[6.223113299938916,6.497727500124086],[6.223053226125558,6.523966422312583],[6.215344906642201,6.533874988939658],[6.212540151406927,6.560637950580997],[6.20887517934608,6.572611809387524],[6.207019806019275,6.585527896894973],[6.207902907892958,6.592926979096831],[6.182557106025683,6.578829765181581],[6.16987323875901,6.575015067691254],[6.142832687878297,6.578114098187143],[6.136295794715181,6.583011150444293],[6.135371208014874,6.588543892086989],[6.164336204652159,6.605446815418247],[6.191454886833583,6.632493019437334],[6.194146155720546,6.641757011377024],[6.193212985890625,6.650062084097954],[6.185919761987464,6.662003040308093],[6.182260989852864,6.672130108018109],[6.172226905747152,6.690509796390018],[6.168552876614001,6.705255985375459],[6.170341014826022,6.713586806585909],[6.185793633869139,6.733289493915038],[6.193345936265985,6.733454574369148],[6.205607891091347,6.744406223268641],[6.220541131867776,6.764137062975124],[6.219755910407002,6.768205940351891],[6.211853981276249,6.776796817619072],[6.209095000633795,6.788781166117985],[6.216320037939454,6.798087120424327],[6.230653841001981,6.804833775958059],[6.24615287855255,6.827006817310803],[6.250658035040317,6.836287022228362],[6.241571902921009,6.841743945626661],[6.235228061825637,6.840760231199738],[6.228891850578464,6.837005138076734],[6.214397907037835,6.8322491651669],[6.199894904626206,6.830264090715275],[6.19537019687715,6.827449799069029],[6.18540382362761,6.824584006846464],[6.167360782973788,6.823766231726268]]]}},{"type":"Feature","properties":{"name":"Akoko-Edo","lga":"Akoko-Edo","state":"Edo","level":"lga","center_lat":7.380651,"center_lng":6.123562},"geometry":{"type":"Polygon","coordinates":[[[6.256732941072414,7.207706928332129],[6.26033401540252,7.216054916701069],[6.263539136222221,7.245527518580161],[6.258184675282564,7.276795491918449],[6.266056383595298,7.28482615989941],[6.270891190176314,7.318696022103779],[6.269941807368582,7.331620216100134],[6.26627206800157,7.345441818385268],[6.268043995034418,7.358391761770463],[6.270755766665332,7.361188888956121],[6.276193140600981,7.362164021152694],[6.285270213849344,7.359478950393282],[6.29524183284434,7.36049699823792],[6.310692787242374,7.349557876894551],[6.323429108366724,7.336744786043084],[6.327969074013595,7.334940909695263],[6.340692997084204,7.325822830059622],[6.34522104311668,7.327713965826888],[6.364192962934965,7.350063801303463],[6.368719102404725,7.352879047130386],[6.376830101428084,7.368659019398251],[6.381350040072334,7.3733220096031],[6.387681961553312,7.377999782863753],[6.398554801962575,7.380875112396552],[6.405792236422599,7.386486052789166],[6.413041114755686,7.388401985563235],[6.432164191724098,7.402327061145002],[6.427671908132083,7.410523890565173],[6.428203108886407,7.415325460901329],[6.423872950576254,7.417540847232374],[6.379771711895046,7.398233711416708],[6.356912778302103,7.414877315235969],[6.295480889731323,7.499175627852992],[6.292051954634076,7.500369628955241],[6.281152887295946,7.501041969311473],[6.267814157997066,7.481779099026255],[6.259168146892534,7.478933810447018],[6.23788690475692,7.475611209389854],[6.226923943285385,7.47103691122453],[6.225323200405398,7.468395709394542],[6.219553444236112,7.457786794824756],[6.208865165395139,7.449615954912417],[6.186916827749428,7.438720226757084],[6.186272144244128,7.432896137147054],[6.182785033802304,7.429427147145191],[6.179922104121829,7.430033206567259],[6.175953865378631,7.434145927692441],[6.170909881885564,7.444097042144847],[6.159730580402027,7.447554456972682],[6.142848015023901,7.44957208598305],[6.127882003851425,7.446197032866849],[6.118698119922328,7.446270942749834],[6.112411976631449,7.448655128231621],[6.11014980397033,7.457177425897555],[6.108257771578963,7.484245776621322],[6.108335972127463,7.490657806112893],[6.110102176774092,7.494141101630589],[6.114750862362484,7.498765945292178],[6.128605842985337,7.505064963277505],[6.146535873032178,7.515995024850554],[6.154077052613957,7.522345066771436],[6.158284188164828,7.528297900627649],[6.16460180323071,7.538271777820341],[6.166984081250405,7.54524647714328],[6.164177895193745,7.550241947607844],[6.138349055764365,7.550453186665266],[6.133570670849849,7.552076817291322],[6.129910893273177,7.564511798980391],[6.118761062573014,7.59141683641792],[6.098731040904852,7.588197231117363],[6.048503875853214,7.580123900197862],[6.043387889939197,7.577459812420443],[6.028888225811045,7.565337180566473],[6.025364876288052,7.558952807925778],[6.022953986337427,7.549645901237398],[6.023499010570902,7.547309875350493],[6.012996197116877,7.53340578095208],[6.004125594720449,7.529235839562375],[5.99454879788874,7.527143955329336],[5.987115859809137,7.529537200581387],[5.975643158105299,7.53021287922104],[5.967428207345961,7.51570701606596],[5.965109825258253,7.513978003781915],[5.962800026300215,7.512831210791774],[5.954218864409086,7.515233040972134],[5.951171874982094,7.501221656554264],[5.948815822991889,7.496039867246111],[5.948134898606725,7.487301826717953],[5.95325803772829,7.483763218397883],[5.963303089066358,7.460363865100362],[5.971339226723956,7.460299014987584],[5.984490870956961,7.456110001675313],[5.986714840417619,7.450263977600514],[5.987182139843924,7.441515923121415],[5.981406213426055,7.438648224336134],[5.975586891122191,7.432283877798795],[5.971411228245643,7.419494152233369],[5.968483924193777,7.414854050673966],[5.970127105181803,7.408429145588627],[5.974661826881857,7.403728007941254],[5.974051953434923,7.400818825228669],[5.975708960600116,7.395558833573375],[5.979677200242634,7.391446114246833],[5.974970817749067,7.382157802840368],[5.974884985553672,7.375164031594807],[5.978241920028609,7.368141173576362],[5.986794949327475,7.363408089311918],[5.987339973561006,7.361072063425013],[5.986694813414942,7.355247973814983],[5.97856617059233,7.347735881905464],[5.957695006719234,7.344322205605351],[5.95044803584824,7.344475269318252],[5.919308186223873,7.337144852153244],[5.917542933959282,7.333662033276255],[5.918569087393507,7.323742867239559],[5.916209221378494,7.318517208102719],[5.924582004955596,7.299211978849769],[5.921632766439075,7.292823792184322],[5.91699123315891,7.288781166018055],[5.909392834211985,7.277768134791643],[5.925564766101104,7.263693810421046],[5.931923865993667,7.260058880213194],[5.941007135570885,7.255526065975232],[5.967329978895464,7.247460842443957],[5.987348080049912,7.226404190700862],[5.991885184953389,7.225522993591312],[5.997323036429009,7.226498127586581],[6.005465983868135,7.232118130447418],[6.010003089670874,7.231236935136508],[6.012732027561071,7.22849178157054],[6.019067763966177,7.232246875592864],[6.024481772615786,7.240612030221087],[6.033549786093829,7.240697860617843],[6.04081106158128,7.238918780377446],[6.055302142579876,7.244598866044896],[6.066176889551855,7.246550082820136],[6.075263022570482,7.241093159421837],[6.100776196364393,7.202536106256332],[6.12439107938485,7.190750122120505],[6.138001918353893,7.188107014627064],[6.148898124948573,7.183590889108302],[6.161640166660391,7.168931961341002],[6.164381026862941,7.162490845076491],[6.167149067275659,7.147737026242794],[6.18031787956653,7.112758159661382],[6.184488773338273,7.112796782845294],[6.198979855236189,7.118476867613424],[6.211626052600309,7.1343011845521],[6.22606706564261,7.15568494940095],[6.237775803410671,7.180737971580186],[6.249507904666132,7.198400974025787],[6.254031180694483,7.202138900889622],[6.256732941072414,7.207706928332129]]]}},{"type":"Feature","properties":{"name":"Oredo","lga":"Oredo","state":"Edo","level":"lga","center_lat":6.236763,"center_lng":5.568199},"geometry":{"type":"Polygon","coordinates":[[[5.644706769901575,6.370216555449701],[5.637354850845725,6.356576920188786],[5.628293037293872,6.354643822054811],[5.606111280611174,6.35560822803734],[5.596364731347307,6.350369947814897],[5.592748875760037,6.346640127439969],[5.590271948591578,6.333961008593747],[5.586665153673948,6.327459812220582],[5.569474220658833,6.315288066591052],[5.560441017239214,6.304117203446253],[5.551420211873335,6.289250852444923],[5.542373179578647,6.28269910787759],[5.528788089998386,6.277204037036711],[5.526996135063655,6.270544051866523],[5.499020098598692,6.227785109795036],[5.490911007037369,6.2110800741861],[5.480128764331084,6.179568767684543],[5.468516826890095,6.124032020561344],[5.464033126427694,6.108284950889811],[5.463652646652349,6.098546466746086],[5.480899848449269,6.09316631397428],[5.493586578258032,6.096058332226278],[5.499029672781205,6.095186195786368],[5.509022749600263,6.089738331259014],[5.512649574218528,6.089772188036079],[5.516268768089219,6.092578373193419],[5.520284176273776,6.099579811159401],[5.522077083590602,6.106062888891245],[5.531655088211778,6.121397983630061],[5.538014722301625,6.140558227780048],[5.546117615735454,6.159110055384815],[5.556949926398033,6.174917206963585],[5.5707240103049,6.207217216201627],[5.576147078724773,6.212810993032974],[5.58339023557096,6.216574191745622],[5.590638160622689,6.218491077801048],[5.606956958996534,6.219569205754283],[5.61782980030506,6.222443103566434],[5.621446133432357,6.226171969760628],[5.627758980292754,6.237318038596641],[5.632225036955958,6.258606910580511],[5.62759113262473,6.289971828137425],[5.629368782043684,6.30107498312401],[5.628438949597921,6.308455943986701],[5.629313945881961,6.318625927344726],[5.633814811704269,6.328829765681178],[5.637392997388986,6.344567775582448],[5.648239136027371,6.355757235807857],[5.649134158414711,6.359459876871881],[5.644706769901575,6.370216555449701]]]}},{"type":"Feature","properties":{"name":"Egor","lga":"Egor","state":"Edo","level":"lga","center_lat":6.359553,"center_lng":5.584823},"geometry":{"type":"Polygon","coordinates":[[[5.641586850852548,6.414154127411109],[5.636931968035924,6.412047935863598],[5.629012108222241,6.413773060378503],[5.624484061290445,6.41188192371186],[5.612698078053882,6.410847187148022],[5.58008003166816,6.40222406468888],[5.574645041835254,6.400324820634012],[5.568317888559761,6.393798828153422],[5.563805102223739,6.387290001032795],[5.559146003385422,6.375354169159607],[5.546605598669487,6.360886992141047],[5.547735843234648,6.360113667811561],[5.544860839256387,6.355700969724012],[5.525872230718903,6.33889293655983],[5.524981977436369,6.333343029557227],[5.527738093738094,6.322282791117971],[5.529634000408862,6.296434879765911],[5.528788089998386,6.277204037036711],[5.542373179578647,6.28269910787759],[5.551420211873335,6.289250852444923],[5.560441017239214,6.304117203446253],[5.569474220658833,6.315288066591052],[5.586665153673948,6.327459812220582],[5.590271948591578,6.333961008593747],[5.592748875760037,6.346640127439969],[5.596364731347307,6.350369947814897],[5.606111280611174,6.35560822803734],[5.628293037293872,6.354643822054811],[5.637354850845725,6.356576920188786],[5.644706769901575,6.370216555449701],[5.644510573803984,6.387528768338029],[5.63990497743282,6.410181045818661],[5.641586850852548,6.414154127411109]]]}},{"type":"Feature","properties":{"name":"Ovia South-West","lga":"Ovia South-West","state":"Edo","level":"lga","center_lat":6.363241,"center_lng":5.241389},"geometry":{"type":"Polygon","coordinates":[[[5.270169735345064,6.054296017047591],[5.277560711058015,6.059073447781429],[5.286127567433311,6.061548232764778],[5.290505885338405,6.06535577794682],[5.291267395274133,6.072399616249356],[5.289934635075383,6.077730178604895],[5.281558514114181,6.078301429767237],[5.27394342375004,6.080776214750585],[5.269134044600548,6.087039947835365],[5.271087644579154,6.098481177764199],[5.280606269663679,6.108380317697538],[5.282890796772904,6.114282130316099],[5.281558514114181,6.122467995201873],[5.282129287736495,6.139030933430888],[5.28688859892975,6.144742012433994],[5.306687832077841,6.144361495786427],[5.314302920643343,6.145693779344469],[5.327629089111213,6.142647743198836],[5.330484389842752,6.144742012433994],[5.332007407915569,6.149501325425888],[5.339622498279709,6.156545161929728],[5.344191551598897,6.157687664254354],[5.351235389901376,6.163589001131527],[5.361135005576102,6.177105904114228],[5.363263607329657,6.183834553421946],[5.36698913613975,6.189146996236957],[5.3684167856062,6.200093268989235],[5.35794591876919,6.212943554001868],[5.356756210131039,6.219368934828537],[5.350093365116777,6.234360695389853],[5.352710724120698,6.241261958772441],[5.366512775144486,6.252208709964066],[5.374603748064544,6.260775566339362],[5.389833926994186,6.267914294808918],[5.39316558782167,6.272197723446254],[5.393641472176228,6.276005268628296],[5.397686957287306,6.276957036438148],[5.401256560741729,6.282668591182585],[5.40363597891735,6.281716347631402],[5.410537243199258,6.284810066731268],[5.413154602203178,6.283144474637822],[5.41577243784775,6.285048007559567],[5.428146839405144,6.281716347631402],[5.43124055940433,6.27814722081763],[5.434571742691844,6.277194977266447],[5.436475754052879,6.279812812911018],[5.450039864248367,6.283144474637822],[5.458844662351339,6.297184465590647],[5.466697692644459,6.302657603765454],[5.468230546602513,6.317473223110824],[5.432705000135684,6.325159000187739],[5.416780999643493,6.339023000111411],[5.412989000142318,6.346922000150244],[5.409146000087901,6.366110000076503],[5.409669999970561,6.370020999669464],[5.407238000233576,6.376512000428534],[5.408981999719572,6.38454899963665],[5.413009343706278,6.381894731556656],[5.44184841097541,6.379610449962342],[5.442543984417398,6.388564110145637],[5.43588066096379,6.391181945790208],[5.435166835780876,6.398797035255029],[5.438022614052443,6.399510860437886],[5.440423964894137,6.403673171979335],[5.444893835582093,6.424038887184963],[5.448501109838389,6.430540085356711],[5.449389934997555,6.436090947439311],[5.460225106403584,6.450973988059161],[5.469263077129369,6.460298061006768],[5.466522216926819,6.466738223989921],[5.466498853439361,6.474127768881488],[5.470114230587342,6.477858066796387],[5.472802161190828,6.488045216413639],[5.478210925893563,6.498257160339733],[5.480886935983335,6.512138843632783],[5.486324786559692,6.513114928211394],[5.489954948562058,6.512226104850924],[5.496246814239157,6.529837131878196],[5.493508815679377,6.535354136284411],[5.486242771087063,6.538980007621319],[5.477146148376107,6.548131943134706],[5.467101097038039,6.570208074443144],[5.442582130061282,6.581060886051091],[5.438038826130992,6.58378887155925],[5.433486938171711,6.589289188145585],[5.430751801254701,6.593882084290783],[5.42340421693109,6.623373985621015],[5.409669875864154,6.664813994570238],[5.386900902354796,6.696006774692933],[5.381394861583658,6.716279029653549],[5.386784076823744,6.73295688595158],[5.394908904722229,6.7441201201475],[5.399425982623029,6.749704838107846],[5.412092209687785,6.759062766933198],[5.422928810116559,6.773023129214096],[5.422912119598664,6.778564929727793],[5.428317070276648,6.789701939692804],[5.43279790819696,6.806373119423995],[5.443592071417015,6.834187983888398],[5.447193146646441,6.842535973156657],[5.454414844769303,6.852766991703334],[5.456190109186252,6.864791869948874],[5.461596012246218,6.87541583287441],[5.459748745408319,6.885469943982798],[5.272408009422122,6.888345749256985],[5.254822253344344,6.882708581036241],[5.208868503878421,6.810784644795547],[5.202496529291466,6.788748741061625],[5.202527521727802,6.783208847110643],[5.197015762167723,6.773944855170953],[5.19053554517933,6.772061825892592],[5.172970293644198,6.762731074579449],[5.150810717840386,6.745987890628726],[5.137937545981003,6.726525782738747],[5.126022815800354,6.70152902574398],[5.122329711147302,6.698738574225843],[5.122350215689949,6.695045471371429],[5.117775918423945,6.683939455641394],[5.114149570446386,6.669145583701777],[5.112367152821889,6.656208515011031],[5.111583710220089,6.630350113067323],[5.114416598946946,6.621132374159799],[5.127551078719364,6.593504429286043],[5.128054143284146,6.588160992236055],[5.132228375339309,6.586143493627389],[5.136910440164741,6.577858925449107],[5.140639782100322,6.574186325338701],[5.147155763327874,6.56960534970716],[5.154583454762701,6.56780004523597],[5.162112236290739,6.561973094882489],[5.161934377369676,6.559301376357496],[5.164249896915237,6.554492473848654],[5.160687446668362,6.549861907800846],[5.162290572751772,6.546477794914324],[5.160331250386946,6.539175510341579],[5.155166148898729,6.533119678030744],[5.154809951717937,6.518871307864629],[5.150357246389831,6.51174688311221],[5.150179385670185,6.504622935899818],[5.153741360175673,6.501060486552262],[5.153385162095617,6.498033046587864],[5.147329807324809,6.489305496651411],[5.145370483161344,6.488771438750973],[5.139492989110181,6.480044364555852],[5.135752678143604,6.477016448850065],[5.133615494159756,6.472563744421336],[5.123463631241634,6.462768078683951],[5.117407798930799,6.459027765918734],[5.114023685145014,6.453328132587274],[5.102768742583464,6.441383590780163],[5.102590880964442,6.437821617173938],[5.107577644192986,6.434972037029922],[5.107399784372603,6.432478655865339],[5.104371867767554,6.430875528882609],[5.103659474305346,6.421257723864926],[5.109536968356451,6.413777578572422],[5.103693484866483,6.402212143275847],[5.098885058998349,6.397403239867685],[5.086036204807044,6.389211655293707],[5.075731277276645,6.377276897211061],[5.066113472258962,6.37656450284959],[5.052824974592966,6.384150982182121],[5.049193381769214,6.382441997800015],[5.047234057605749,6.372112274162191],[5.043849944719227,6.366590977291821],[5.039219378671419,6.36409711858721],[5.032392979352551,6.364906788117821],[5.02924537737232,6.363563060686772],[5.027820586850623,6.345218182373287],[5.028711318572562,6.341834068587445],[5.034945010703723,6.332928657931291],[5.035301207884459,6.328475951703865],[5.030136108194881,6.323132992193905],[5.021523476327445,6.318678856044414],[5.015364647360627,6.30897378890927],[5.012897014685507,6.302100182377558],[5.015618801166795,6.292353152875762],[5.021533011839097,6.285357475067485],[5.029640197736967,6.279189109689696],[5.037746906094867,6.277426719967195],[5.041041851200532,6.274275303062836],[5.04796886397196,6.264913559313356],[5.049714088334554,6.251429558027723],[5.053448200274261,6.246833323599049],[5.063478468556525,6.248346806160214],[5.073347569334885,6.239534854849694],[5.072933674349656,6.231186389840047],[5.078811169300081,6.222615719439943],[5.077929973989171,6.220148087664143],[5.07454586020333,6.217686175576603],[5.075622559133819,6.213434218714269],[5.081807613230808,6.218033313886394],[5.087235928295513,6.214525699801243],[5.086137772440281,6.207841872704307],[5.089201927227236,6.201057433953451],[5.092422961550483,6.198280333770413],[5.095841407854721,6.197087765288188],[5.098225594235828,6.198143482136061],[5.099816798906204,6.20217609435133],[5.103156089581944,6.20217609435133],[5.109939575051385,6.195427894681643],[5.112825870917277,6.19547414771381],[5.115489959594015,6.206108569754747],[5.119923592100122,6.207008838786919],[5.122467995401735,6.205872058848513],[5.12239503880005,6.201276301959808],[5.127111911885265,6.197025299278209],[5.128687382017119,6.189658642132656],[5.135913371704817,6.18666219730261],[5.135737419346469,6.182256221647378],[5.132036209103831,6.180846214181486],[5.137146950171655,6.176264286167907],[5.137675762326637,6.173091888080194],[5.133446216569666,6.172210692769283],[5.134438283899726,6.169372793020045],[5.133102417442672,6.164677619676468],[5.14177535964518,6.154955252283116],[5.143491745447761,6.151237964860229],[5.142962932393459,6.143306732219969],[5.145542144854176,6.141641616767231],[5.154594897736388,6.14418792663156],[5.157862185991121,6.146707058084303],[5.161456108012999,6.142713546592972],[5.163980943865511,6.145965560762079],[5.162909031126958,6.1479306226002],[5.164251804377329,6.159086703588571],[5.168694495754437,6.16357469561575],[5.181912421820869,6.156877518083036],[5.182441234875114,6.154410362048623],[5.180645938059627,6.149358471716141],[5.184027194699297,6.147360324719273],[5.189668158958398,6.151941794977915],[5.193720817961434,6.151766300374504],[5.198831557230619,6.147007941563288],[5.20259395824462,6.145440536551575],[5.205974674391769,6.147819651655652],[5.206199935678512,6.151631590025886],[5.210404636764622,6.153056126938736],[5.222382314092556,6.147946124214286],[5.222781903562066,6.143952612722956],[5.218388802601226,6.140757804429199],[5.217190988373488,6.135566001170048],[5.230544089737975,6.118752002802751],[5.233738898931108,6.112362385315862],[5.232443417429806,6.100299338044067],[5.234839523425308,6.072744350671314],[5.234040821127053,6.064757327688596],[5.240031325785083,6.061562520294103],[5.257602775447765,6.064357739118407],[5.270169735345064,6.054296017047591]]]}},{"type":"Feature","properties":{"name":"Etsako East","lga":"Etsako East","state":"Edo","level":"lga","center_lat":7.238664,"center_lng":6.467447},"geometry":{"type":"Polygon","coordinates":[[[6.715768813679858,7.122821331439354],[6.715768813679858,7.135699272403542],[6.700792788556384,7.178488255428704],[6.693305016113641,7.216476058423382],[6.69015741323409,7.219050979319263],[6.685336431930864,7.223010159191517],[6.683232783666085,7.229867076104711],[6.674722195173217,7.232915018813117],[6.669155121012068,7.239996051276819],[6.637670039640682,7.294242953849277],[6.569521904312467,7.275294782428318],[6.544260025379913,7.274919033086974],[6.529881000807563,7.272704124295956],[6.51488494868147,7.266996861116297],[6.511441232327059,7.26702499370856],[6.508032799973762,7.269968033198211],[6.508111954702997,7.276380061790462],[6.499695778837179,7.292187215167871],[6.499925137435184,7.310838222705854],[6.498295784422965,7.3184289927039],[6.499551773095902,7.32716322010657],[6.497326851253206,7.33301019656335],[6.485763073407156,7.341996192770125],[6.472981930072081,7.360606193920773],[6.466869830778137,7.36531877544121],[6.450531959582293,7.355543136706444],[6.442511081621149,7.35677385263125],[6.435657977833444,7.359745025612483],[6.434144020430267,7.376661776919491],[6.432457923794175,7.379590988433392],[6.426746844791126,7.381968020707632],[6.422241210763332,7.388999939395717],[6.432106018178217,7.397664070040832],[6.432164191724098,7.402327061145002],[6.413041114755686,7.388401985563235],[6.405792236422599,7.386486052789166],[6.398554801962575,7.380875112396552],[6.387681961553312,7.377999782863753],[6.381350040072334,7.3733220096031],[6.376830101428084,7.368659019398251],[6.368719102404725,7.352879047130386],[6.364192962934965,7.350063801303463],[6.34522104311668,7.327713965826888],[6.340692997084204,7.325822830059622],[6.327969074013595,7.334940909695263],[6.323429108366724,7.336744786043084],[6.310692787242374,7.349557876894551],[6.29524183284434,7.36049699823792],[6.285270213849344,7.359478950393282],[6.276193140600981,7.362164021152694],[6.270755766665332,7.361188888956121],[6.268043995034418,7.358391761770463],[6.26627206800157,7.345441818385268],[6.269941807368582,7.331620216100134],[6.270891190176314,7.318696022103779],[6.266056383595298,7.28482615989941],[6.258184675282564,7.276795491918449],[6.263539136222221,7.245527518580161],[6.26033401540252,7.216054916701069],[6.256732941072414,7.207706928332129],[6.264008999615669,7.201310159436332],[6.283073902138938,7.194099903387894],[6.329339026574871,7.188994883806913],[6.336602211323054,7.186293125227621],[6.35837411907039,7.183728218282681],[6.365640163662647,7.180100917923085],[6.376522063842231,7.180203914579067],[6.414650917405936,7.166707992779664],[6.424636841017445,7.163107871730972],[6.440954207670586,7.165110110643127],[6.505383015014161,7.150938987744155],[6.510861873776491,7.138981818556147],[6.519965172155025,7.127983092845511],[6.523615836901399,7.120626926291663],[6.531813144760861,7.109619140810764],[6.535466193609977,7.101339816579298],[6.53646993593884,7.070864200822257],[6.529308796363921,7.041234970317703],[6.527536869331129,7.028285980213866],[6.528458117747959,7.023674966326666],[6.532100201163416,7.019091129052413],[6.556632996115923,7.003619194370344],[6.591129780215226,6.9919362068905],[6.611095905052025,6.986581801708837],[6.641936778659442,6.98410320270068],[6.655547141887155,6.981461047589335],[6.679260254257372,6.972002506210742],[6.677258967727255,7.0340757373055],[6.690095424764081,7.068306922826253],[6.711490154147327,7.104677200692322],[6.715768813679858,7.122821331439354]]]}},{"type":"Feature","properties":{"name":"Ovia North-East","lga":"Ovia North-East","state":"Edo","level":"lga","center_lat":6.394914,"center_lng":5.483026},"geometry":{"type":"Polygon","coordinates":[[[5.442778489835462,6.041352430969937],[5.455959797306832,6.080494880734193],[5.458668231553702,6.084216117979508],[5.460454941642297,6.092545985908544],[5.463652646652349,6.098546466746086],[5.464033126427694,6.108284950889811],[5.468516826890095,6.124032020561344],[5.480128764331084,6.179568767684543],[5.490911007037369,6.2110800741861],[5.499020098598692,6.227785109795036],[5.526996135063655,6.270544051866523],[5.528788089998386,6.277204037036711],[5.529634000408862,6.296434879765911],[5.527738093738094,6.322282791117971],[5.524981977436369,6.333343029557227],[5.525872230718903,6.33889293655983],[5.544860839256387,6.355700969724012],[5.547735843234648,6.360113667811561],[5.546605598669487,6.360886992141047],[5.559146003385422,6.375354169159607],[5.563805102223739,6.387290001032795],[5.568317888559761,6.393798828153422],[5.574645041835254,6.400324820634012],[5.58008003166816,6.40222406468888],[5.612698078053882,6.410847187148022],[5.624484061290445,6.41188192371186],[5.629012108222241,6.413773060378503],[5.636931968035924,6.412047935863598],[5.641586850852548,6.414154127411109],[5.644175123982848,6.415812089656242],[5.6450720547316,6.418592049683411],[5.643487930423703,6.424071788881974],[5.638930797618286,6.431418895665558],[5.638906955691482,6.438808918097152],[5.644300938237734,6.453639984197935],[5.654238223815014,6.46574401897135],[5.686773777188137,6.50023221994104],[5.723683156352649,6.530701803045815],[5.757166184172092,6.552266764199828],[5.769818104821752,6.566242861019248],[5.776132859144184,6.576464817997021],[5.791487015913106,6.596008944057587],[5.795994080762284,6.604366946377525],[5.796875275173875,6.612688706918334],[5.813230038335632,6.657549858339337],[5.819724378277499,6.667321897987279],[5.82150965484675,6.676576830156648],[5.829041628068751,6.691777694784832],[5.836077326607381,6.717910244262384],[5.839681261680937,6.725335551594469],[5.844200247943149,6.72999758941728],[5.849585169819761,6.747600509955646],[5.8531423752205,6.769804432228796],[5.86325257074958,6.782498156065117],[5.870091733246966,6.797244866657309],[5.830898762268134,6.804598807389084],[5.801857948285715,6.811715126551917],[5.797325134047753,6.81167221180317],[5.792798996376632,6.808856964177608],[5.777440071402225,6.7911601076529],[5.757518767876888,6.781733990431349],[5.751592635791553,6.781640052646367],[5.726479529906442,6.769490719021519],[5.714492798204105,6.757421016766557],[5.702557562581489,6.736117364424899],[5.667370796125397,6.727612018979528],[5.654348850319252,6.734927177347402],[5.640374659163228,6.746853352300434],[5.629253387334018,6.745868206152863],[5.620002270088719,6.74212360542009],[5.605238913944788,6.729115009150405],[5.589559077589399,6.714253902095948],[5.582198142830066,6.704056263685686],[5.576634883593044,6.704025745192041],[5.564489364892324,6.720578670369378],[5.561655997726177,6.72979641017622],[5.562521934239896,6.74088191956497],[5.561532974067575,6.751956462620683],[5.56321620906084,6.762380123144226],[5.561419962561274,6.772269725767273],[5.555774688750944,6.787012575569975],[5.545835018171601,6.804292202423255],[5.543577670373224,6.812798976891315],[5.54351091369773,6.824802399111491],[5.549027442362615,6.833143234272882],[5.553647993560105,6.835938930637212],[5.563836574898062,6.837841987817512],[5.571213244195917,6.845269680151659],[5.572089194660634,6.854508399343217],[5.570152283401228,6.869271277947178],[5.56551885571065,6.876023293440312],[5.555240153310478,6.883038998251209],[5.537059784381597,6.884796618868904],[5.459748745408319,6.885469943982798],[5.461596012246218,6.87541583287441],[5.456190109186252,6.864791869948874],[5.454414844769303,6.852766991703334],[5.447193146646441,6.842535973156657],[5.443592071417015,6.834187983888398],[5.43279790819696,6.806373119423995],[5.428317070276648,6.789701939692804],[5.422912119598664,6.778564929727793],[5.422928810116559,6.773023129214096],[5.412092209687785,6.759062766933198],[5.399425982623029,6.749704838107846],[5.394908904722229,6.7441201201475],[5.386784076823744,6.73295688595158],[5.381394861583658,6.716279029653549],[5.386900902354796,6.696006774692933],[5.409669875864154,6.664813994570238],[5.42340421693109,6.623373985621015],[5.430751801254701,6.593882084290783],[5.433486938171711,6.589289188145585],[5.438038826130992,6.58378887155925],[5.442582130061282,6.581060886051091],[5.467101097038039,6.570208074443144],[5.477146148376107,6.548131943134706],[5.486242771087063,6.538980007621319],[5.493508815679377,6.535354136284411],[5.496246814239157,6.529837131878196],[5.489954948562058,6.512226104850924],[5.486324786559692,6.513114928211394],[5.480886935983335,6.512138843632783],[5.478210925893563,6.498257160339733],[5.472802161190828,6.488045216413639],[5.470114230587342,6.477858066796387],[5.466498853439361,6.474127768881488],[5.466522216926819,6.466738223989921],[5.469263077129369,6.460298061006768],[5.460225106403584,6.450973988059161],[5.449389934997555,6.436090947439311],[5.448501109838389,6.430540085356711],[5.444893835582093,6.424038887184963],[5.440423964894137,6.403673171979335],[5.438022614052443,6.399510860437886],[5.435166835780876,6.398797035255029],[5.43588066096379,6.391181945790208],[5.442543984417398,6.388564110145637],[5.44184841097541,6.379610449962342],[5.413009343706278,6.381894731556656],[5.408981999719572,6.38454899963665],[5.407238000233576,6.376512000428534],[5.409669999970561,6.370020999669464],[5.409146000087901,6.366110000076503],[5.412989000142318,6.346922000150244],[5.416780999643493,6.339023000111411],[5.432705000135684,6.325159000187739],[5.468230546602513,6.317473223110824],[5.466697692644459,6.302657603765454],[5.458844662351339,6.297184465590647],[5.450039864248367,6.283144474637822],[5.436475754052879,6.279812812911018],[5.434571742691844,6.277194977266447],[5.43124055940433,6.27814722081763],[5.428146839405144,6.281716347631402],[5.41577243784775,6.285048007559567],[5.413154602203178,6.283144474637822],[5.410537243199258,6.284810066731268],[5.40363597891735,6.281716347631402],[5.401256560741729,6.282668591182585],[5.397686957287306,6.276957036438148],[5.393641472176228,6.276005268628296],[5.39316558782167,6.272197723446254],[5.389833926994186,6.267914294808918],[5.374603748064544,6.260775566339362],[5.366512775144486,6.252208709964066],[5.352710724120698,6.241261958772441],[5.350093365116777,6.234360695389853],[5.356756210131039,6.219368934828537],[5.35794591876919,6.212943554001868],[5.3684167856062,6.200093268989235],[5.36698913613975,6.189146996236957],[5.363263607329657,6.183834553421946],[5.361135005576102,6.177105904114228],[5.351235389901376,6.163589001131527],[5.344191551598897,6.157687664254354],[5.339622498279709,6.156545161929728],[5.332007407915569,6.149501325425888],[5.330484389842752,6.144742012433994],[5.327629089111213,6.142647743198836],[5.314302920643343,6.145693779344469],[5.306687832077841,6.144361495786427],[5.28688859892975,6.144742012433994],[5.282129287736495,6.139030933430888],[5.281558514114181,6.122467995201873],[5.282890796772904,6.114282130316099],[5.280606269663679,6.108380317697538],[5.271087644579154,6.098481177764199],[5.269134044600548,6.087039947835365],[5.27394342375004,6.080776214750585],[5.281558514114181,6.078301429767237],[5.289934635075383,6.077730178604895],[5.291267395274133,6.072399616249356],[5.290505885338405,6.06535577794682],[5.286127567433311,6.061548232764778],[5.277560711058015,6.059073447781429],[5.270169735345064,6.054296017047591],[5.26826906226745,6.052536011427833],[5.263137568444051,6.031021864667366],[5.25574659183178,6.010848792337924],[5.248584974716834,5.984231742101258],[5.249889601424002,5.967705042953412],[5.254238832556098,5.954657347758427],[5.256848086869752,5.947698863211997],[5.269026029727513,5.936826021903414],[5.270486105149701,5.916543277250469],[5.275984516072583,5.906816275650669],[5.292076815692553,5.909860881874238],[5.30512403424683,5.917254241689932],[5.315937270288828,5.932292731924065],[5.341302873428901,5.956155778366508],[5.350001334793831,5.960939884767924],[5.358699322216012,5.969638347931436],[5.345217228392414,5.975292205770756],[5.339998245822414,5.98268556738509],[5.336518764329583,5.984425546002171],[5.32695054972811,5.98268556738509],[5.32695054972811,5.994428634973588],[5.323036193865278,6.00530147628217],[5.32738542589675,6.018349170577835],[5.334343908644541,6.021393299261376],[5.340436443187343,6.020022534612337],[5.344359383079109,6.017407083070452],[5.367845043414093,6.020886563664021],[5.390411839434876,6.019026898772381],[5.401897891574492,6.023089551941325],[5.413356766201844,6.02145256998017],[5.4180312002797,6.011584425181127],[5.417561039210625,6.009370470570786],[5.428089602952866,6.00704731937833],[5.433328135884835,6.009993696252138],[5.433655246292631,6.01424994467925],[5.433328135884835,6.019160889663397],[5.429398997865519,6.024726533902481],[5.429726584914022,6.031929159203401],[5.442778489835462,6.041352430969937]]]}}]}